SNAP-3 JIMI             
1 40975U 15058M   26065.30055915  .00008539  00000+0  60250-3 0  9991
2 40975  64.7663 185.0026 0105689  97.8734 263.4395 15.01074067 98772
PROPCUBE 1 (FLORA)      
1 40976U 15058N   26064.96056817  .00004310  00000+0  40934-3 0  9995
2 40976  64.7731 255.0127 0130324 101.6509 259.9261 14.88600565100898
SINOD-D 3               
1 40977U 15058P   26065.19558532  .00006574  00000+0  56106-3 0  9995
2 40977  64.7717 237.2229 0118710  99.5801 261.8749 14.93161481 99371
HORYU-4                 
1 41340U 16012D   26064.44225828  .00100607  00000+0  10940-2 0  9994
2 41340  30.9912  97.7021 0002347 105.9687 254.1224 15.62025345554441
RAVAN                   
1 41849U 16067B   26065.21299892  .00042513  00000+0  87500-3 0  9994
2 41849  98.0043 303.5694 0006619  18.1581 341.9901 15.45808270511743
CELTEE 1                
1 41850U 16067C   26065.05828917  .00006425  00000+0  31484-3 0  9996
2 41850  98.0817 284.5830 0000787 129.5260 230.6043 15.18533270510223
OPTICUBE 04             
1 41851U 16067D   26065.06231522  .00003393  00000+0  21748-3 0  9991
2 41851  98.0803 271.9224 0016958 105.4274 254.8827 15.09158030509617
AEROCUBE 8D             
1 41852U 16067E   26064.85114453  .00010383  00000+0  44737-3 0  9991
2 41852  98.0830 287.1881 0004518 121.1860 238.9819 15.22788117510336
AEROCUBE 8C             
1 41853U 16067F   26065.15489247  .00009750  00000+0  41739-3 0  9997
2 41853  98.0696 284.8792 0006577  63.4449 296.7460 15.23016740510375
CORVUS BC2              
1 42846U 17042X   26065.20501719  .00006060  00000+0  42369-3 0  9990
2 42846  97.3938 230.6723 0014323 104.2171 256.0649 15.05565865471568
CORVUS BC1              
1 42847U 17042Y   26065.01268058  .00004906  00000+0  34209-3 0  9997
2 42847  97.3966 231.2312 0013202  83.1035 277.1694 15.05773651471568
MAKERSAT 0              
1 43016U 17073D   26065.23073688  .00025802  00000+0  78414-3 0  9991
2 43016  97.4782 307.1982 0115679 278.2847  80.5288 15.27603695450723
SIRION PATHFINDER-2     
1 43759U 18099B   26065.08148471  .00006509  00000+0  36705-3 0  9990
2 43759  97.4390 116.5924 0007513 301.2937  58.7558 15.13484751397029
CORVUS BC4              
1 43767U 18099K   26065.08457960  .00005560  00000+0  33117-3 0  9995
2 43767  97.4205 111.0738 0008390   8.2854 351.8514 15.11564664396828
SPACEBEE-7              
1 43816U 18099BL  26065.17736348  .02286287  69989-2  18998-2 0  9992
2 43816  97.4330 151.9415 0009116 277.1241  82.9009 16.15606450398650
M2 PATHFINDER           
1 45727U 20037E   26065.28655454  .00004022  00000+0  29407-3 0  9997
2 45727  97.8145 255.3711 0012371 137.5155 222.7030 15.04146831310021
