[{"OBJECT_NAME":"SNAP-3 JIMI","OBJECT_ID":"2015-058M","EPOCH":"2026-03-06T07:12:48.310560","MEAN_MOTION":15.01074067,"ECCENTRICITY":0.01056891,"INCLINATION":64.7663,"RA_OF_ASC_NODE":185.0026,"ARG_OF_PERICENTER":97.8734,"MEAN_ANOMALY":263.4395,"EPHEMERIS_TYPE":0,"CLASSIFICATION_TYPE":"U","NORAD_CAT_ID":40975,"ELEMENT_SET_NO":999,"REV_AT_EPOCH":9877,"BSTAR":0.00060250348,"MEAN_MOTION_DOT":8.539e-5,"MEAN_MOTION_DDOT":0},{"OBJECT_NAME":"PROPCUBE 1 (FLORA)","OBJECT_ID":"2015-058N","EPOCH":"2026-03-05T23:03:13.089888","MEAN_MOTION":14.88600565,"ECCENTRICITY":0.0130324,"INCLINATION":64.7731,"RA_OF_ASC_NODE":255.0127,"ARG_OF_PERICENTER":101.6509,"MEAN_ANOMALY":259.9261,"EPHEMERIS_TYPE":0,"CLASSIFICATION_TYPE":"U","NORAD_CAT_ID":40976,"ELEMENT_SET_NO":999,"REV_AT_EPOCH":10089,"BSTAR":0.00040934313,"MEAN_MOTION_DOT":4.31e-5,"MEAN_MOTION_DDOT":0},{"OBJECT_NAME":"SINOD-D 3","OBJECT_ID":"2015-058P","EPOCH":"2026-03-06T04:41:38.571648","MEAN_MOTION":14.93161481,"ECCENTRICITY":0.011871,"INCLINATION":64.7717,"RA_OF_ASC_NODE":237.2229,"ARG_OF_PERICENTER":99.5801,"MEAN_ANOMALY":261.8749,"EPHEMERIS_TYPE":0,"CLASSIFICATION_TYPE":"U","NORAD_CAT_ID":40977,"ELEMENT_SET_NO":999,"REV_AT_EPOCH":9937,"BSTAR":0.00056106472,"MEAN_MOTION_DOT":6.574e-5,"MEAN_MOTION_DDOT":0},{"OBJECT_NAME":"HORYU-4","OBJECT_ID":"2016-012D","EPOCH":"2026-03-05T10:36:51.115392","MEAN_MOTION":15.62025345,"ECCENTRICITY":0.0002347,"INCLINATION":30.9912,"RA_OF_ASC_NODE":97.7021,"ARG_OF_PERICENTER":105.9687,"MEAN_ANOMALY":254.1224,"EPHEMERIS_TYPE":0,"CLASSIFICATION_TYPE":"U","NORAD_CAT_ID":41340,"ELEMENT_SET_NO":999,"REV_AT_EPOCH":55444,"BSTAR":0.001094,"MEAN_MOTION_DOT":0.00100607,"MEAN_MOTION_DDOT":0},{"OBJECT_NAME":"RAVAN","OBJECT_ID":"2016-067B","EPOCH":"2026-03-06T05:06:43.106688","MEAN_MOTION":15.4580827,"ECCENTRICITY":0.0006619,"INCLINATION":98.0043,"RA_OF_ASC_NODE":303.5694,"ARG_OF_PERICENTER":18.1581,"MEAN_ANOMALY":341.9901,"EPHEMERIS_TYPE":0,"CLASSIFICATION_TYPE":"U","NORAD_CAT_ID":41849,"ELEMENT_SET_NO":999,"REV_AT_EPOCH":51174,"BSTAR":0.00087499589,"MEAN_MOTION_DOT":0.00042513,"MEAN_MOTION_DDOT":0},{"OBJECT_NAME":"CELTEE 1","OBJECT_ID":"2016-067C","EPOCH":"2026-03-06T01:23:56.184288","MEAN_MOTION":15.1853327,"ECCENTRICITY":7.877e-5,"INCLINATION":98.0817,"RA_OF_ASC_NODE":284.583,"ARG_OF_PERICENTER":129.526,"MEAN_ANOMALY":230.6043,"EPHEMERIS_TYPE":0,"CLASSIFICATION_TYPE":"U","NORAD_CAT_ID":41850,"ELEMENT_SET_NO":999,"REV_AT_EPOCH":51022,"BSTAR":0.00031484267,"MEAN_MOTION_DOT":6.425e-5,"MEAN_MOTION_DDOT":0},{"OBJECT_NAME":"OPTICUBE 04","OBJECT_ID":"2016-067D","EPOCH":"2026-03-06T01:29:44.035008","MEAN_MOTION":15.0915803,"ECCENTRICITY":0.0016958,"INCLINATION":98.0803,"RA_OF_ASC_NODE":271.9224,"ARG_OF_PERICENTER":105.4274,"MEAN_ANOMALY":254.8827,"EPHEMERIS_TYPE":0,"CLASSIFICATION_TYPE":"U","NORAD_CAT_ID":41851,"ELEMENT_SET_NO":999,"REV_AT_EPOCH":50961,"BSTAR":0.00021747748,"MEAN_MOTION_DOT":3.393e-5,"MEAN_MOTION_DDOT":0},{"OBJECT_NAME":"AEROCUBE 8D","OBJECT_ID":"2016-067E","EPOCH":"2026-03-05T20:25:38.887392","MEAN_MOTION":15.22788117,"ECCENTRICITY":0.0004518,"INCLINATION":98.083,"RA_OF_ASC_NODE":287.1881,"ARG_OF_PERICENTER":121.186,"MEAN_ANOMALY":238.9819,"EPHEMERIS_TYPE":0,"CLASSIFICATION_TYPE":"U","NORAD_CAT_ID":41852,"ELEMENT_SET_NO":999,"REV_AT_EPOCH":51033,"BSTAR":0.00044736691,"MEAN_MOTION_DOT":0.00010383,"MEAN_MOTION_DDOT":0},{"OBJECT_NAME":"AEROCUBE 8C","OBJECT_ID":"2016-067F","EPOCH":"2026-03-06T03:43:02.709408","MEAN_MOTION":15.2301674,"ECCENTRICITY":0.00065777,"INCLINATION":98.0696,"RA_OF_ASC_NODE":284.8792,"ARG_OF_PERICENTER":63.4449,"MEAN_ANOMALY":296.746,"EPHEMERIS_TYPE":0,"CLASSIFICATION_TYPE":"U","NORAD_CAT_ID":41853,"ELEMENT_SET_NO":999,"REV_AT_EPOCH":51037,"BSTAR":0.00041738649,"MEAN_MOTION_DOT":9.75e-5,"MEAN_MOTION_DDOT":0},{"OBJECT_NAME":"CORVUS BC2","OBJECT_ID":"2017-042X","EPOCH":"2026-03-06T04:55:13.485216","MEAN_MOTION":15.05565865,"ECCENTRICITY":0.00143235,"INCLINATION":97.3938,"RA_OF_ASC_NODE":230.6723,"ARG_OF_PERICENTER":104.2171,"MEAN_ANOMALY":256.0649,"EPHEMERIS_TYPE":0,"CLASSIFICATION_TYPE":"U","NORAD_CAT_ID":42846,"ELEMENT_SET_NO":999,"REV_AT_EPOCH":47156,"BSTAR":0.00042369358,"MEAN_MOTION_DOT":6.06e-5,"MEAN_MOTION_DDOT":0},{"OBJECT_NAME":"CORVUS BC1","OBJECT_ID":"2017-042Y","EPOCH":"2026-03-06T00:18:15.602112","MEAN_MOTION":15.05773651,"ECCENTRICITY":0.00132025,"INCLINATION":97.3966,"RA_OF_ASC_NODE":231.2312,"ARG_OF_PERICENTER":83.1035,"MEAN_ANOMALY":277.1694,"EPHEMERIS_TYPE":0,"CLASSIFICATION_TYPE":"U","NORAD_CAT_ID":42847,"ELEMENT_SET_NO":999,"REV_AT_EPOCH":47156,"BSTAR":0.00034208618,"MEAN_MOTION_DOT":4.906e-5,"MEAN_MOTION_DDOT":0},{"OBJECT_NAME":"MAKERSAT 0","OBJECT_ID":"2017-073D","EPOCH":"2026-03-06T05:32:15.666432","MEAN_MOTION":15.27603695,"ECCENTRICITY":0.01156798,"INCLINATION":97.4782,"RA_OF_ASC_NODE":307.1982,"ARG_OF_PERICENTER":278.2847,"MEAN_ANOMALY":80.5288,"EPHEMERIS_TYPE":0,"CLASSIFICATION_TYPE":"U","NORAD_CAT_ID":43016,"ELEMENT_SET_NO":999,"REV_AT_EPOCH":45072,"BSTAR":0.00078413784,"MEAN_MOTION_DOT":0.00025802,"MEAN_MOTION_DDOT":0},{"OBJECT_NAME":"SIRION PATHFINDER-2","OBJECT_ID":"2018-099B","EPOCH":"2026-03-06T01:57:20.278944","MEAN_MOTION":15.13484751,"ECCENTRICITY":0.00075134,"INCLINATION":97.439,"RA_OF_ASC_NODE":116.5924,"ARG_OF_PERICENTER":301.2937,"MEAN_ANOMALY":58.7558,"EPHEMERIS_TYPE":0,"CLASSIFICATION_TYPE":"U","NORAD_CAT_ID":43759,"ELEMENT_SET_NO":999,"REV_AT_EPOCH":39702,"BSTAR":0.00036705073,"MEAN_MOTION_DOT":6.509e-5,"MEAN_MOTION_DDOT":0},{"OBJECT_NAME":"CORVUS BC4","OBJECT_ID":"2018-099K","EPOCH":"2026-03-06T02:01:47.677440","MEAN_MOTION":15.11564664,"ECCENTRICITY":0.00083908,"INCLINATION":97.4205,"RA_OF_ASC_NODE":111.0738,"ARG_OF_PERICENTER":8.2854,"MEAN_ANOMALY":351.8514,"EPHEMERIS_TYPE":0,"CLASSIFICATION_TYPE":"U","NORAD_CAT_ID":43767,"ELEMENT_SET_NO":999,"REV_AT_EPOCH":39682,"BSTAR":0.00033117208,"MEAN_MOTION_DOT":5.56e-5,"MEAN_MOTION_DDOT":0},{"OBJECT_NAME":"SPACEBEE-7","OBJECT_ID":"2018-099BL","EPOCH":"2026-03-06T04:15:24.204672","MEAN_MOTION":16.1560645,"ECCENTRICITY":0.00091165,"INCLINATION":97.433,"RA_OF_ASC_NODE":151.9415,"ARG_OF_PERICENTER":277.1241,"MEAN_ANOMALY":82.9009,"EPHEMERIS_TYPE":0,"CLASSIFICATION_TYPE":"U","NORAD_CAT_ID":43816,"ELEMENT_SET_NO":999,"REV_AT_EPOCH":39865,"BSTAR":0.0018998397,"MEAN_MOTION_DOT":0.02286287,"MEAN_MOTION_DDOT":0.0069988525},{"OBJECT_NAME":"M2 PATHFINDER","OBJECT_ID":"2020-037E","EPOCH":"2026-03-06T06:52:38.312256","MEAN_MOTION":15.04146831,"ECCENTRICITY":0.0012371,"INCLINATION":97.8145,"RA_OF_ASC_NODE":255.3711,"ARG_OF_PERICENTER":137.5155,"MEAN_ANOMALY":222.703,"EPHEMERIS_TYPE":0,"CLASSIFICATION_TYPE":"U","NORAD_CAT_ID":45727,"ELEMENT_SET_NO":999,"REV_AT_EPOCH":31002,"BSTAR":0.00029407028,"MEAN_MOTION_DOT":4.022e-5,"MEAN_MOTION_DDOT":0}]
